[{"OBJECT_NAME":"ONEWEB-0135","OBJECT_ID":"2020-100Z","EPOCH":"2025-11-29T15:49:33.359232","MEAN_MOTION":13.12441112,"ECCENTRICITY":0.0002114,"INCLINATION":87.8958,"RA_OF_ASC_NODE":30.3144,"ARG_OF_PERICENTER":92.2666,"MEAN_ANOMALY":267.8704,"EPHEMERIS_TYPE":0,"CLASSIFICATION_TYPE":"U","NORAD_CAT_ID":47281,"ELEMENT_SET_NO":999,"REV_AT_EPOCH":23856,"BSTAR":-0.0011403,"MEAN_MOTION_DOT":-3.97e-6,"MEAN_MOTION_DDOT":0},{"OBJECT_NAME":"ONEWEB-0136","OBJECT_ID":"2020-100AA","EPOCH":"2025-11-29T16:17:37.225248","MEAN_MOTION":13.1244347,"ECCENTRICITY":0.0001936,"INCLINATION":87.8957,"RA_OF_ASC_NODE":30.2793,"ARG_OF_PERICENTER":87.3144,"MEAN_ANOMALY":272.8206,"EPHEMERIS_TYPE":0,"CLASSIFICATION_TYPE":"U","NORAD_CAT_ID":47282,"ELEMENT_SET_NO":999,"REV_AT_EPOCH":23849,"BSTAR":0.00069683,"MEAN_MOTION_DOT":2.63e-6,"MEAN_MOTION_DDOT":0},{"OBJECT_NAME":"ONEWEB-0137","OBJECT_ID":"2020-100AB","EPOCH":"2025-11-29T15:16:52.548384","MEAN_MOTION":13.12441869,"ECCENTRICITY":0.0001579,"INCLINATION":87.8959,"RA_OF_ASC_NODE":30.2937,"ARG_OF_PERICENTER":99.7153,"MEAN_ANOMALY":260.4154,"EPHEMERIS_TYPE":0,"CLASSIFICATION_TYPE":"U","NORAD_CAT_ID":47283,"ELEMENT_SET_NO":999,"REV_AT_EPOCH":23839,"BSTAR":-0.00050356,"MEAN_MOTION_DOT":-1.68e-6,"MEAN_MOTION_DDOT":0},{"OBJECT_NAME":"ONEWEB-0138","OBJECT_ID":"2020-100AC","EPOCH":"2025-11-29T05:37:37.366464","MEAN_MOTION":13.12442519,"ECCENTRICITY":0.00018084,"INCLINATION":87.8955,"RA_OF_ASC_NODE":30.3827,"ARG_OF_PERICENTER":92.867,"MEAN_ANOMALY":267.2666,"EPHEMERIS_TYPE":0,"CLASSIFICATION_TYPE":"U","NORAD_CAT_ID":47284,"ELEMENT_SET_NO":999,"REV_AT_EPOCH":23842,"BSTAR":0.0012004489,"MEAN_MOTION_DOT":4.45e-6,"MEAN_MOTION_DDOT":0},{"OBJECT_NAME":"ONEWEB-0139","OBJECT_ID":"2020-100AD","EPOCH":"2025-11-29T15:42:46.055808","MEAN_MOTION":13.12444028,"ECCENTRICITY":0.0001787,"INCLINATION":87.8954,"RA_OF_ASC_NODE":30.2885,"ARG_OF_PERICENTER":99.3176,"MEAN_ANOMALY":260.8154,"EPHEMERIS_TYPE":0,"CLASSIFICATION_TYPE":"U","NORAD_CAT_ID":47285,"ELEMENT_SET_NO":999,"REV_AT_EPOCH":23855,"BSTAR":-0.0011169,"MEAN_MOTION_DOT":-3.89e-6,"MEAN_MOTION_DDOT":0},{"OBJECT_NAME":"ONEWEB-0140","OBJECT_ID":"2020-100AE","EPOCH":"2025-11-29T16:26:58.293888","MEAN_MOTION":13.12442796,"ECCENTRICITY":0.0001836,"INCLINATION":87.8953,"RA_OF_ASC_NODE":30.2689,"ARG_OF_PERICENTER":95.1066,"MEAN_ANOMALY":265.0273,"EPHEMERIS_TYPE":0,"CLASSIFICATION_TYPE":"U","NORAD_CAT_ID":47286,"ELEMENT_SET_NO":999,"REV_AT_EPOCH":23852,"BSTAR":0.0011254,"MEAN_MOTION_DOT":4.18e-6,"MEAN_MOTION_DDOT":0},{"OBJECT_NAME":"ONEWEB-0141","OBJECT_ID":"2020-100AF","EPOCH":"2025-11-29T15:42:22.313088","MEAN_MOTION":13.12443451,"ECCENTRICITY":0.0001438,"INCLINATION":87.895,"RA_OF_ASC_NODE":30.2852,"ARG_OF_PERICENTER":102.1149,"MEAN_ANOMALY":258.014,"EPHEMERIS_TYPE":0,"CLASSIFICATION_TYPE":"U","NORAD_CAT_ID":47287,"ELEMENT_SET_NO":999,"REV_AT_EPOCH":23850,"BSTAR":-0.0013296,"MEAN_MOTION_DOT":-4.66e-6,"MEAN_MOTION_DDOT":0},{"OBJECT_NAME":"ONEWEB-0142","OBJECT_ID":"2020-100AG","EPOCH":"2025-11-29T17:16:10.727040","MEAN_MOTION":13.12438392,"ECCENTRICITY":0.0001391,"INCLINATION":87.8956,"RA_OF_ASC_NODE":30.2947,"ARG_OF_PERICENTER":92.83,"MEAN_ANOMALY":267.2988,"EPHEMERIS_TYPE":0,"CLASSIFICATION_TYPE":"U","NORAD_CAT_ID":47288,"ELEMENT_SET_NO":999,"REV_AT_EPOCH":23850,"BSTAR":-0.00086994,"MEAN_MOTION_DOT":-3.0e-6,"MEAN_MOTION_DDOT":0},{"OBJECT_NAME":"ONEWEB-0143","OBJECT_ID":"2020-100AH","EPOCH":"2025-11-29T17:29:59.616672","MEAN_MOTION":13.12444629,"ECCENTRICITY":0.0001761,"INCLINATION":87.8955,"RA_OF_ASC_NODE":30.2882,"ARG_OF_PERICENTER":100.8523,"MEAN_ANOMALY":259.2804,"EPHEMERIS_TYPE":0,"CLASSIFICATION_TYPE":"U","NORAD_CAT_ID":47289,"ELEMENT_SET_NO":999,"REV_AT_EPOCH":23848,"BSTAR":-0.001232,"MEAN_MOTION_DOT":-4.3e-6,"MEAN_MOTION_DDOT":0},{"OBJECT_NAME":"ONEWEB-0144","OBJECT_ID":"2020-100AJ","EPOCH":"2025-11-29T13:10:45.359040","MEAN_MOTION":13.12442135,"ECCENTRICITY":0.0001735,"INCLINATION":87.8951,"RA_OF_ASC_NODE":30.2938,"ARG_OF_PERICENTER":87.8353,"MEAN_ANOMALY":272.2974,"EPHEMERIS_TYPE":0,"CLASSIFICATION_TYPE":"U","NORAD_CAT_ID":47290,"ELEMENT_SET_NO":999,"REV_AT_EPOCH":23838,"BSTAR":0.00055221,"MEAN_MOTION_DOT":2.11e-6,"MEAN_MOTION_DDOT":0},{"OBJECT_NAME":"ONEWEB-0145","OBJECT_ID":"2020-100AK","EPOCH":"2025-11-29T16:08:16.546272","MEAN_MOTION":13.12443716,"ECCENTRICITY":0.0001749,"INCLINATION":87.8958,"RA_OF_ASC_NODE":30.3067,"ARG_OF_PERICENTER":97.4265,"MEAN_ANOMALY":262.7062,"EPHEMERIS_TYPE":0,"CLASSIFICATION_TYPE":"U","NORAD_CAT_ID":47291,"ELEMENT_SET_NO":999,"REV_AT_EPOCH":23859,"BSTAR":3.3164e-5,"MEAN_MOTION_DOT":2.5e-7,"MEAN_MOTION_DDOT":0},{"OBJECT_NAME":"ONEWEB-0146","OBJECT_ID":"2020-100AL","EPOCH":"2025-11-29T16:03:36.099648","MEAN_MOTION":13.12443766,"ECCENTRICITY":0.0002038,"INCLINATION":87.8954,"RA_OF_ASC_NODE":30.2939,"ARG_OF_PERICENTER":107.0398,"MEAN_ANOMALY":253.0954,"EPHEMERIS_TYPE":0,"CLASSIFICATION_TYPE":"U","NORAD_CAT_ID":47292,"ELEMENT_SET_NO":999,"REV_AT_EPOCH":23850,"BSTAR":-0.00027808,"MEAN_MOTION_DOT":-8.7e-7,"MEAN_MOTION_DDOT":0},{"OBJECT_NAME":"ONEWEB-0147","OBJECT_ID":"2020-100AM","EPOCH":"2025-11-29T17:04:19.490016","MEAN_MOTION":13.12441526,"ECCENTRICITY":0.0001971,"INCLINATION":87.8958,"RA_OF_ASC_NODE":30.2639,"ARG_OF_PERICENTER":92.5386,"MEAN_ANOMALY":267.5968,"EPHEMERIS_TYPE":0,"CLASSIFICATION_TYPE":"U","NORAD_CAT_ID":47293,"ELEMENT_SET_NO":999,"REV_AT_EPOCH":23840,"BSTAR":-0.00019692,"MEAN_MOTION_DOT":-5.8e-7,"MEAN_MOTION_DDOT":0},{"OBJECT_NAME":"ONEWEB-0115","OBJECT_ID":"2021-025A","EPOCH":"2025-11-29T19:39:17.860608","MEAN_MOTION":13.13470428,"ECCENTRICITY":0.0001769,"INCLINATION":87.8996,"RA_OF_ASC_NODE":359.8421,"ARG_OF_PERICENTER":95.364,"MEAN_ANOMALY":264.7691,"EPHEMERIS_TYPE":0,"CLASSIFICATION_TYPE":"U","NORAD_CAT_ID":48042,"ELEMENT_SET_NO":999,"REV_AT_EPOCH":22742,"BSTAR":0.00035136,"MEAN_MOTION_DOT":1.41e-6,"MEAN_MOTION_DDOT":0},{"OBJECT_NAME":"ONEWEB-0152","OBJECT_ID":"2021-025B","EPOCH":"2025-11-29T12:40:01.272000","MEAN_MOTION":13.13470018,"ECCENTRICITY":0.0001875,"INCLINATION":87.8987,"RA_OF_ASC_NODE":359.9084,"ARG_OF_PERICENTER":97.0143,"MEAN_ANOMALY":263.12,"EPHEMERIS_TYPE":0,"CLASSIFICATION_TYPE":"U","NORAD_CAT_ID":48043,"ELEMENT_SET_NO":999,"REV_AT_EPOCH":22734,"BSTAR":0.00090077,"MEAN_MOTION_DOT":3.42e-6,"MEAN_MOTION_DDOT":0},{"OBJECT_NAME":"ONEWEB-0153","OBJECT_ID":"2021-025C","EPOCH":"2025-11-29T13:58:01.274016","MEAN_MOTION":13.13470188,"ECCENTRICITY":0.000172,"INCLINATION":87.8991,"RA_OF_ASC_NODE":359.9018,"ARG_OF_PERICENTER":93.9553,"MEAN_ANOMALY":266.1773,"EPHEMERIS_TYPE":0,"CLASSIFICATION_TYPE":"U","NORAD_CAT_ID":48044,"ELEMENT_SET_NO":999,"REV_AT_EPOCH":22734,"BSTAR":-0.00023426,"MEAN_MOTION_DOT":-7.3e-7,"MEAN_MOTION_DDOT":0},{"OBJECT_NAME":"ONEWEB-0154","OBJECT_ID":"2021-025D","EPOCH":"2025-11-29T19:22:13.833984","MEAN_MOTION":13.13470307,"ECCENTRICITY":0.0001829,"INCLINATION":87.899,"RA_OF_ASC_NODE":359.8536,"ARG_OF_PERICENTER":92.8383,"MEAN_ANOMALY":267.2956,"EPHEMERIS_TYPE":0,"CLASSIFICATION_TYPE":"U","NORAD_CAT_ID":48045,"ELEMENT_SET_NO":999,"REV_AT_EPOCH":22733,"BSTAR":-0.00041248,"MEAN_MOTION_DOT":-1.38e-6,"MEAN_MOTION_DDOT":0},{"OBJECT_NAME":"ONEWEB-0116","OBJECT_ID":"2021-025E","EPOCH":"2025-11-29T18:28:36.284160","MEAN_MOTION":13.13469822,"ECCENTRICITY":0.0001898,"INCLINATION":87.8995,"RA_OF_ASC_NODE":359.8455,"ARG_OF_PERICENTER":96.7221,"MEAN_ANOMALY":263.4124,"EPHEMERIS_TYPE":0,"CLASSIFICATION_TYPE":"U","NORAD_CAT_ID":48046,"ELEMENT_SET_NO":999,"REV_AT_EPOCH":22747,"BSTAR":0.00079198,"MEAN_MOTION_DOT":3.02e-6,"MEAN_MOTION_DDOT":0},{"OBJECT_NAME":"ONEWEB-0150","OBJECT_ID":"2021-025F","EPOCH":"2025-11-29T14:15:04.630176","MEAN_MOTION":13.13470154,"ECCENTRICITY":0.0001588,"INCLINATION":87.8998,"RA_OF_ASC_NODE":359.8756,"ARG_OF_PERICENTER":96.8503,"MEAN_ANOMALY":263.2807,"EPHEMERIS_TYPE":0,"CLASSIFICATION_TYPE":"U","NORAD_CAT_ID":48047,"ELEMENT_SET_NO":999,"REV_AT_EPOCH":22734,"BSTAR":0.00058489,"MEAN_MOTION_DOT":2.26e-6,"MEAN_MOTION_DDOT":0},{"OBJECT_NAME":"ONEWEB-0107","OBJECT_ID":"2021-025G","EPOCH":"2025-11-29T14:17:31.605216","MEAN_MOTION":13.13470162,"ECCENTRICITY":0.0001608,"INCLINATION":87.8996,"RA_OF_ASC_NODE":359.8721,"ARG_OF_PERICENTER":86.5946,"MEAN_ANOMALY":273.5367,"EPHEMERIS_TYPE":0,"CLASSIFICATION_TYPE":"U","NORAD_CAT_ID":48048,"ELEMENT_SET_NO":999,"REV_AT_EPOCH":22732,"BSTAR":0.00068684,"MEAN_MOTION_DOT":2.64e-6,"MEAN_MOTION_DDOT":0},{"OBJECT_NAME":"ONEWEB-0101","OBJECT_ID":"2021-025H","EPOCH":"2025-11-29T18:52:58.460736","MEAN_MOTION":13.13469992,"ECCENTRICITY":0.0001814,"INCLINATION":87.8987,"RA_OF_ASC_NODE":359.8684,"ARG_OF_PERICENTER":88.6908,"MEAN_ANOMALY":271.4429,"EPHEMERIS_TYPE":0,"CLASSIFICATION_TYPE":"U","NORAD_CAT_ID":48049,"ELEMENT_SET_NO":999,"REV_AT_EPOCH":22732,"BSTAR":-0.00039607,"MEAN_MOTION_DOT":-1.32e-6,"MEAN_MOTION_DDOT":0},{"OBJECT_NAME":"ONEWEB-0113","OBJECT_ID":"2021-025J","EPOCH":"2025-11-29T19:23:45.062016","MEAN_MOTION":13.13984074,"ECCENTRICITY":0.0001773,"INCLINATION":87.8992,"RA_OF_ASC_NODE":359.7944,"ARG_OF_PERICENTER":102.6002,"MEAN_ANOMALY":257.5326,"EPHEMERIS_TYPE":0,"CLASSIFICATION_TYPE":"U","NORAD_CAT_ID":48050,"ELEMENT_SET_NO":999,"REV_AT_EPOCH":22742,"BSTAR":-0.00035856,"MEAN_MOTION_DOT":-1.19e-6,"MEAN_MOTION_DDOT":0},{"OBJECT_NAME":"ONEWEB-0112","OBJECT_ID":"2021-025K","EPOCH":"2025-11-29T14:24:50.245056","MEAN_MOTION":13.13470226,"ECCENTRICITY":0.0001673,"INCLINATION":87.8996,"RA_OF_ASC_NODE":359.868,"ARG_OF_PERICENTER":93.9925,"MEAN_ANOMALY":266.1395,"EPHEMERIS_TYPE":0,"CLASSIFICATION_TYPE":"U","NORAD_CAT_ID":48051,"ELEMENT_SET_NO":999,"REV_AT_EPOCH":22739,"BSTAR":0.00095704,"MEAN_MOTION_DOT":3.62e-6,"MEAN_MOTION_DDOT":0},{"OBJECT_NAME":"ONEWEB-0156","OBJECT_ID":"2021-025L","EPOCH":"2025-11-29T07:18:14.150880","MEAN_MOTION":13.13469354,"ECCENTRICITY":0.00016435,"INCLINATION":87.8995,"RA_OF_ASC_NODE":359.9389,"ARG_OF_PERICENTER":91.6625,"MEAN_ANOMALY":268.4692,"EPHEMERIS_TYPE":0,"CLASSIFICATION_TYPE":"U","NORAD_CAT_ID":48052,"ELEMENT_SET_NO":999,"REV_AT_EPOCH":22733,"BSTAR":0.00084475339,"MEAN_MOTION_DOT":3.21e-6,"MEAN_MOTION_DDOT":0}]
